{"type":"FeatureCollection","features":[{"type":"Feature","properties":{"village":"Data Not Available","taluka":"Mumbai","district":"Mumbai","lgd":"0","type":"Village"},"geometry":{"type":"Polygon","coordinates":[[[72.82774,18.90302],[72.82782,18.90297],[72.82792,18.90271],[72.82791,18.90248],[72.82784,18.90231],[72.82759,18.90196],[72.82732,18.90175],[72.82721,18.9016],[72.82705,18.90156],[72.8269,18.90159],[72.82685,18.9017],[72.8269,18.90184],[72.82668,18.9019],[72.82669,18.90199],[72.82727,18.90259],[72.82745,18.90271],[72.82759,18.90295],[72.82774,18.90302]]]}},{"type":"Feature","properties":{"village":"Data Not Available","taluka":"Mumbai","district":"Mumbai","lgd":"0","type":"Village"},"geometry":{"type":"Polygon","coordinates":[[[72.85203,18.94871],[72.85233,18.94814],[72.85234,18.94774],[72.8521,18.94742],[72.85208,18.94728],[72.85196,18.9473],[72.85187,18.94722],[72.85175,18.94721],[72.85154,18.94736],[72.85145,18.94749],[72.8513,18.94753],[72.85123,18.94792],[72.85116,18.9479],[72.85114,18.94796],[72.85131,18.94804],[72.85137,18.94818],[72.85138,18.94835],[72.85131,18.94849],[72.85132,18.94857],[72.85145,18.94857],[72.85157,18.94866],[72.85171,18.94863],[72.8519,18.94873],[72.85203,18.94871]]]}},{"type":"Feature","properties":{"village":"Data Not Available","taluka":"Mumbai","district":"Mumbai","lgd":"0","type":"Village"},"geometry":{"type":"Polygon","coordinates":[[[72.84783,18.91912],[72.84799,18.91896],[72.84818,18.919],[72.84841,18.91883],[72.84849,18.9186],[72.84842,18.91839],[72.84827,18.91831],[72.84789,18.91825],[72.84746,18.91828],[72.84724,18.91837],[72.84708,18.91865],[72.8472,18.91878],[72.84722,18.91894],[72.8473,18.91893],[72.84746,18.91913],[72.84754,18.9191],[72.84783,18.91912]]]}},{"type":"Feature","properties":{"village":"Ward No 172","taluka":"Mumbai","district":"Mumbai","lgd":"0","type":"Ward"},"geometry":{"type":"Polygon","coordinates":[[[72.8597,19.03147],[72.85883,19.03074],[72.85818,19.0314],[72.85751,19.02982],[72.85719,19.02931],[72.85686,19.02948],[72.85618,19.02956],[72.85357,19.02914],[72.8534,19.02894],[72.85274,19.02769],[72.85124,19.0287],[72.8531,19.03165],[72.8545,19.03357],[72.85691,19.03724],[72.863,19.04606],[72.86314,19.04641],[72.86581,19.05011],[72.86756,19.05284],[72.86762,19.05283],[72.86873,19.05195],[72.86992,19.05148],[72.86917,19.04983],[72.86941,19.04781],[72.86939,19.0467],[72.86921,19.04549],[72.86889,19.04437],[72.86836,19.04309],[72.86763,19.04191],[72.86618,19.04014],[72.86306,19.03661],[72.86198,19.0352],[72.86128,19.03406],[72.86052,19.03223],[72.8597,19.03147]]]}},{"type":"Feature","properties":{"village":"Ward No 173","taluka":"Mumbai","district":"Mumbai","lgd":"0","type":"Ward"},"geometry":{"type":"Polygon","coordinates":[[[72.8717,19.05084],[72.87207,19.05071],[72.87334,19.05075],[72.87392,19.05065],[72.87501,19.05014],[72.8759,19.04945],[72.87767,19.0483],[72.87923,19.04764],[72.87974,19.04678],[72.88009,19.04411],[72.88038,19.04302],[72.87859,19.04273],[72.87689,19.04207],[72.87426,19.04114],[72.87363,19.04077],[72.87225,19.04092],[72.87214,19.04087],[72.87202,19.04092],[72.87162,19.04084],[72.87133,19.0407],[72.87104,19.04071],[72.8709,19.04074],[72.87038,19.04108],[72.87003,19.04107],[72.86994,19.04102],[72.86925,19.0402],[72.86882,19.04024],[72.86861,19.03999],[72.86895,19.03972],[72.86822,19.03895],[72.86634,19.04033],[72.86763,19.04191],[72.86836,19.04309],[72.86889,19.04437],[72.86921,19.04549],[72.86939,19.0467],[72.86941,19.04781],[72.86917,19.04983],[72.86992,19.05148],[72.87026,19.0514],[72.87099,19.05131],[72.87134,19.05112],[72.8717,19.05084]]]}},{"type":"Feature","properties":{"village":"Ward No 174","taluka":"Mumbai","district":"Mumbai","lgd":"0","type":"Ward"},"geometry":{"type":"Polygon","coordinates":[[[72.88061,19.04214],[72.88116,19.03862],[72.88144,19.0372],[72.88148,19.03648],[72.88113,19.03474],[72.88016,19.03286],[72.87916,19.03124],[72.87877,19.02978],[72.87822,19.02813],[72.87766,19.02605],[72.87738,19.02483],[72.8776,19.0241],[72.87733,19.02408],[72.87489,19.02442],[72.8737,19.02468],[72.87345,19.02442],[72.8732,19.02436],[72.87189,19.0251],[72.87154,19.02542],[72.87116,19.02552],[72.87135,19.02618],[72.87158,19.02737],[72.87183,19.02818],[72.87187,19.02876],[72.87199,19.02921],[72.87197,19.02941],[72.87211,19.03012],[72.87234,19.03202],[72.87361,19.03267],[72.87362,19.03327],[72.87428,19.03348],[72.8743,19.03748],[72.87213,19.0374],[72.87202,19.03908],[72.87202,19.04092],[72.87214,19.04087],[72.87237,19.04092],[72.87363,19.04077],[72.87426,19.04114],[72.87689,19.04207],[72.87859,19.04273],[72.88038,19.04302],[72.88061,19.04214]]]}},{"type":"Feature","properties":{"village":"Ward No 175","taluka":"Mumbai","district":"Mumbai","lgd":"0","type":"Ward"},"geometry":{"type":"Polygon","coordinates":[[[72.8743,19.03748],[72.87428,19.03348],[72.87362,19.03327],[72.87361,19.03267],[72.87234,19.03202],[72.87211,19.03012],[72.87197,19.02941],[72.87199,19.02921],[72.87187,19.02876],[72.87183,19.02818],[72.87158,19.02737],[72.87135,19.02618],[72.87116,19.02552],[72.86807,19.02582],[72.86606,19.02615],[72.86657,19.02727],[72.86658,19.02753],[72.86639,19.02842],[72.86639,19.02873],[72.86709,19.03067],[72.86718,19.03119],[72.86715,19.03145],[72.86646,19.03349],[72.86645,19.03363],[72.86648,19.03379],[72.86663,19.03409],[72.86764,19.03597],[72.86818,19.03656],[72.86915,19.03723],[72.87069,19.03741],[72.87213,19.0374],[72.8743,19.03748]]]}},{"type":"Feature","properties":{"village":"Ward No 176","taluka":"Mumbai","district":"Mumbai","lgd":"0","type":"Ward"},"geometry":{"type":"Polygon","coordinates":[[[72.8709,19.04074],[72.87133,19.0407],[72.87162,19.04084],[72.87202,19.04092],[72.87202,19.03908],[72.87213,19.0374],[72.87069,19.03741],[72.86934,19.03727],[72.86906,19.03718],[72.86818,19.03656],[72.86764,19.03597],[72.86648,19.03379],[72.86646,19.03357],[72.86539,19.03391],[72.86363,19.03415],[72.86314,19.03427],[72.86287,19.0344],[72.86052,19.03223],[72.86128,19.03406],[72.86198,19.0352],[72.86306,19.03661],[72.86634,19.04033],[72.86822,19.03895],[72.86895,19.03972],[72.86861,19.03999],[72.86882,19.04024],[72.86925,19.0402],[72.86994,19.04102],[72.87003,19.04107],[72.87038,19.04108],[72.8709,19.04074]]]}},{"type":"Feature","properties":{"village":"Ward No 177","taluka":"Mumbai","district":"Mumbai","lgd":"0","type":"Ward"},"geometry":{"type":"Polygon","coordinates":[[[72.86715,19.03095],[72.86673,19.02966],[72.86117,19.02947],[72.86033,19.02949],[72.86057,19.02707],[72.86091,19.02512],[72.86109,19.02441],[72.86126,19.02319],[72.85795,19.02308],[72.85693,19.02317],[72.85624,19.01971],[72.85604,19.01926],[72.85581,19.01888],[72.85486,19.01946],[72.85468,19.01947],[72.85429,19.01935],[72.85394,19.01932],[72.85354,19.01939],[72.8532,19.01956],[72.85299,19.01977],[72.85283,19.02005],[72.85274,19.0208],[72.85264,19.02102],[72.85214,19.02141],[72.85091,19.02221],[72.84952,19.02034],[72.8486,19.02098],[72.84675,19.01841],[72.8448,19.0197],[72.84809,19.02449],[72.85124,19.0287],[72.85274,19.02769],[72.8534,19.02894],[72.85357,19.02914],[72.85618,19.02956],[72.85686,19.02948],[72.85719,19.02931],[72.85751,19.02982],[72.85818,19.0314],[72.85883,19.03074],[72.85983,19.03157],[72.86287,19.0344],[72.86314,19.03427],[72.86363,19.03415],[72.86539,19.03391],[72.86646,19.03357],[72.86715,19.03145],[72.86715,19.03095]]]}},{"type":"Feature","properties":{"village":"Ward No 178","taluka":"Mumbai","district":"Mumbai","lgd":"0","type":"Ward"},"geometry":{"type":"Polygon","coordinates":[[[72.86126,19.02319],[72.86135,19.02143],[72.86127,19.02055],[72.86103,19.01947],[72.86069,19.01843],[72.85997,19.01707],[72.85887,19.01536],[72.8584,19.01448],[72.8574,19.01228],[72.85673,19.0106],[72.85567,19.01087],[72.85469,19.01125],[72.84754,19.01308],[72.84655,19.01399],[72.84546,19.01475],[72.84279,19.01698],[72.84379,19.01827],[72.8448,19.0197],[72.84675,19.01841],[72.8486,19.02098],[72.84952,19.02034],[72.85091,19.02221],[72.85214,19.02141],[72.85264,19.02102],[72.85274,19.0208],[72.85283,19.02005],[72.85299,19.01977],[72.8532,19.01956],[72.85354,19.01939],[72.85394,19.01932],[72.85429,19.01935],[72.85468,19.01947],[72.85486,19.01946],[72.85581,19.01888],[72.85604,19.01926],[72.85624,19.01971],[72.85693,19.02317],[72.85795,19.02308],[72.86126,19.02319]]]}},{"type":"Feature","properties":{"village":"Ward No 179","taluka":"Mumbai","district":"Mumbai","lgd":"0","type":"Ward"},"geometry":{"type":"Polygon","coordinates":[[[72.86673,19.02966],[72.86639,19.02873],[72.86639,19.02842],[72.86658,19.02753],[72.86657,19.02727],[72.86606,19.02615],[72.86613,19.02496],[72.86597,19.02254],[72.86614,19.02213],[72.86617,19.02167],[72.86559,19.01962],[72.8654,19.0183],[72.86517,19.01768],[72.86491,19.01726],[72.86466,19.01663],[72.86424,19.01595],[72.86392,19.01561],[72.8633,19.01522],[72.85673,19.0106],[72.8574,19.01228],[72.8584,19.01448],[72.85887,19.01536],[72.85997,19.01707],[72.86069,19.01843],[72.86103,19.01947],[72.86127,19.02055],[72.86135,19.02143],[72.86126,19.02319],[72.86109,19.02441],[72.86091,19.02512],[72.86057,19.02707],[72.86033,19.02949],[72.86117,19.02947],[72.86673,19.02966]]]}},{"type":"Feature","properties":{"village":"Ward No 180","taluka":"Mumbai","district":"Mumbai","lgd":"0","type":"Ward"},"geometry":{"type":"Polygon","coordinates":[[[72.86807,19.02582],[72.87143,19.02548],[72.87189,19.0251],[72.8732,19.02436],[72.87292,19.02422],[72.87256,19.02326],[72.87256,19.02209],[72.87227,19.02129],[72.87224,19.02082],[72.87212,19.02043],[72.87194,19.02004],[72.8712,19.01885],[72.87014,19.01764],[72.86542,19.0184],[72.86559,19.01962],[72.86617,19.02167],[72.86614,19.02213],[72.86597,19.02254],[72.86613,19.02496],[72.86606,19.02615],[72.86807,19.02582]]]}},{"type":"Feature","properties":{"village":"Ward No 182","taluka":"Mumbai","district":"Mumbai","lgd":"0","type":"Ward"},"geometry":{"type":"Polygon","coordinates":[[[72.84277,19.04907],[72.84451,19.04515],[72.84516,19.04344],[72.84347,19.04323],[72.84341,19.04277],[72.84267,19.04204],[72.84156,19.04111],[72.84093,19.04064],[72.84038,19.04074],[72.84033,19.04072],[72.84024,19.03994],[72.83943,19.04001],[72.83939,19.03921],[72.83909,19.03781],[72.83806,19.03779],[72.827,19.0438],[72.82743,19.04403],[72.82805,19.04427],[72.82855,19.04458],[72.82943,19.04478],[72.82961,19.04489],[72.82977,19.04504],[72.82992,19.04531],[72.83001,19.04611],[72.83128,19.04744],[72.83222,19.04854],[72.83303,19.0492],[72.83385,19.04945],[72.83537,19.04935],[72.83601,19.04942],[72.83671,19.04914],[72.83741,19.04918],[72.83771,19.04904],[72.83809,19.04868],[72.83816,19.04805],[72.83878,19.04801],[72.83942,19.04835],[72.84043,19.04904],[72.84128,19.04983],[72.84189,19.05023],[72.84215,19.05034],[72.84277,19.04907]]]}},{"type":"Feature","properties":{"village":"Ward No 183","taluka":"Mumbai","district":"Mumbai","lgd":"0","type":"Ward"},"geometry":{"type":"Polygon","coordinates":[[[72.86581,19.05011],[72.86384,19.04742],[72.86309,19.04628],[72.86276,19.04656],[72.86208,19.04682],[72.85969,19.04804],[72.85694,19.04805],[72.85511,19.04841],[72.85452,19.04844],[72.8541,19.04838],[72.8536,19.04818],[72.85277,19.0476],[72.85172,19.04664],[72.85128,19.04644],[72.84729,19.04559],[72.84464,19.04479],[72.84378,19.04682],[72.84215,19.05034],[72.84283,19.05062],[72.84474,19.0507],[72.85227,19.05145],[72.85277,19.05158],[72.85355,19.05197],[72.85445,19.05197],[72.86333,19.05271],[72.86582,19.05286],[72.86687,19.053],[72.86756,19.05284],[72.86581,19.05011]]]}},{"type":"Feature","properties":{"village":"Ward No 184","taluka":"Mumbai","district":"Mumbai","lgd":"0","type":"Ward"},"geometry":{"type":"Polygon","coordinates":[[[72.85694,19.04805],[72.85969,19.04804],[72.86208,19.04682],[72.86157,19.04561],[72.86126,19.04518],[72.86124,19.04487],[72.86108,19.04449],[72.86094,19.04428],[72.86069,19.0441],[72.86014,19.043],[72.85908,19.04151],[72.85873,19.04109],[72.85668,19.04258],[72.85885,19.04517],[72.8582,19.04564],[72.8583,19.04596],[72.85709,19.04617],[72.85692,19.04627],[72.85678,19.0471],[72.8567,19.04809],[72.85694,19.04805]]]}},{"type":"Feature","properties":{"village":"Ward No 185","taluka":"Mumbai","district":"Mumbai","lgd":"0","type":"Ward"},"geometry":{"type":"Polygon","coordinates":[[[72.863,19.04606],[72.85691,19.03724],[72.85446,19.03352],[72.85313,19.03409],[72.85329,19.03451],[72.8533,19.03465],[72.85285,19.03601],[72.85289,19.03663],[72.85298,19.03687],[72.85502,19.0403],[72.8553,19.04067],[72.8556,19.04131],[72.85668,19.04258],[72.85873,19.04109],[72.85908,19.04151],[72.86014,19.043],[72.86069,19.0441],[72.86094,19.04428],[72.86108,19.04449],[72.86124,19.04487],[72.86126,19.04518],[72.86157,19.04561],[72.86208,19.04682],[72.86276,19.04656],[72.86309,19.04628],[72.863,19.04606]]]}},{"type":"Feature","properties":{"village":"Ward No 186","taluka":"Mumbai","district":"Mumbai","lgd":"0","type":"Ward"},"geometry":{"type":"Polygon","coordinates":[[[72.8567,19.04793],[72.85687,19.04645],[72.85695,19.04624],[72.85709,19.04617],[72.8583,19.04596],[72.8582,19.04564],[72.85885,19.04517],[72.85586,19.04164],[72.8556,19.04131],[72.85522,19.04056],[72.85505,19.04171],[72.85504,19.04191],[72.85512,19.04204],[72.85476,19.04328],[72.85441,19.04424],[72.8542,19.04606],[72.85437,19.04635],[72.8545,19.04645],[72.85461,19.04664],[72.85481,19.04729],[72.85519,19.04777],[72.85555,19.04789],[72.8567,19.04793]]]}},{"type":"Feature","properties":{"village":"Ward No 187","taluka":"Mumbai","district":"Mumbai","lgd":"0","type":"Ward"},"geometry":{"type":"Polygon","coordinates":[[[72.85108,19.04373],[72.85085,19.04365],[72.85018,19.0437],[72.84864,19.04366],[72.8488,19.04297],[72.84894,19.04263],[72.84918,19.04225],[72.85004,19.04137],[72.85099,19.04031],[72.85048,19.03925],[72.84976,19.03915],[72.84964,19.03951],[72.84703,19.0389],[72.84605,19.0414],[72.84552,19.04252],[72.84464,19.04479],[72.84729,19.04559],[72.85128,19.04644],[72.85172,19.04664],[72.85192,19.0468],[72.85302,19.04781],[72.8536,19.04818],[72.8541,19.04838],[72.85492,19.04844],[72.8567,19.04809],[72.8567,19.04793],[72.85555,19.04789],[72.85519,19.04777],[72.85481,19.04729],[72.8547,19.04686],[72.8545,19.04645],[72.85437,19.04635],[72.85388,19.04563],[72.8534,19.0455],[72.85288,19.0452],[72.85258,19.04487],[72.85201,19.0445],[72.85108,19.04373]]]}},{"type":"Feature","properties":{"village":"Ward No 188","taluka":"Mumbai","district":"Mumbai","lgd":"0","type":"Ward"},"geometry":{"type":"Polygon","coordinates":[[[72.85441,19.04424],[72.85507,19.04226],[72.85512,19.04204],[72.85504,19.04191],[72.85505,19.04171],[72.85522,19.04056],[72.85502,19.0403],[72.85369,19.03804],[72.85253,19.0387],[72.85215,19.03898],[72.85144,19.03974],[72.85073,19.04063],[72.84918,19.04225],[72.84894,19.04263],[72.8488,19.04297],[72.84864,19.04366],[72.85018,19.0437],[72.85057,19.04365],[72.85097,19.04367],[72.85201,19.0445],[72.85258,19.04487],[72.85288,19.0452],[72.8534,19.0455],[72.85388,19.04563],[72.8542,19.04606],[72.85441,19.04424]]]}},{"type":"Feature","properties":{"village":"Ward No 189","taluka":"Mumbai","district":"Mumbai","lgd":"0","type":"Ward"},"geometry":{"type":"Polygon","coordinates":[[[72.8518,19.03933],[72.85215,19.03898],[72.85253,19.0387],[72.85369,19.03804],[72.85298,19.03687],[72.85289,19.03663],[72.85285,19.03601],[72.8533,19.03465],[72.85329,19.03451],[72.85313,19.03409],[72.85446,19.03352],[72.8531,19.03165],[72.85125,19.02872],[72.84809,19.02449],[72.8448,19.0197],[72.84338,19.02062],[72.8443,19.02231],[72.84516,19.02429],[72.84572,19.0258],[72.84736,19.0311],[72.84758,19.03227],[72.84771,19.03346],[72.84775,19.03459],[72.84768,19.03576],[72.84752,19.03704],[72.84734,19.03792],[72.84703,19.0389],[72.84964,19.03951],[72.84976,19.03915],[72.85048,19.03925],[72.85099,19.04031],[72.8518,19.03933]]]}},{"type":"Feature","properties":{"village":"Ward No 190","taluka":"Mumbai","district":"Mumbai","lgd":"0","type":"Ward"},"geometry":{"type":"Polygon","coordinates":[[[72.827,19.0438],[72.83806,19.03779],[72.83909,19.03781],[72.83939,19.03921],[72.83943,19.04001],[72.84024,19.03994],[72.84033,19.04072],[72.84038,19.04074],[72.84093,19.04064],[72.84156,19.04111],[72.84267,19.04204],[72.84341,19.04277],[72.84347,19.04323],[72.84516,19.04344],[72.84552,19.04252],[72.84605,19.0414],[72.84713,19.03864],[72.84752,19.03704],[72.84768,19.03576],[72.84775,19.03459],[72.84771,19.03346],[72.84758,19.03227],[72.84736,19.0311],[72.84714,19.03036],[72.84012,19.03195],[72.83986,19.0289],[72.83752,19.03025],[72.81823,19.04022],[72.81893,19.041],[72.8205,19.04198],[72.82146,19.04225],[72.82166,19.04245],[72.82204,19.04158],[72.822,19.04126],[72.82207,19.04105],[72.82234,19.0405],[72.82252,19.04048],[72.82262,19.04056],[72.82257,19.0413],[72.82276,19.0413],[72.82277,19.04154],[72.8229,19.04152],[72.82287,19.0413],[72.82306,19.04127],[72.82315,19.04172],[72.8233,19.04209],[72.82344,19.04222],[72.82358,19.0423],[72.82484,19.04259],[72.82542,19.04279],[72.827,19.0438]]]}},{"type":"Feature","properties":{"village":"Ward No 191","taluka":"Mumbai","district":"Mumbai","lgd":"0","type":"Ward"},"geometry":{"type":"Polygon","coordinates":[[[72.83752,19.03025],[72.83986,19.0289],[72.84012,19.03195],[72.84714,19.03036],[72.84572,19.0258],[72.84516,19.02429],[72.8443,19.02231],[72.84338,19.02062],[72.84313,19.02078],[72.84183,19.02113],[72.84233,19.02181],[72.84246,19.02217],[72.84243,19.02257],[72.84229,19.02291],[72.84208,19.02316],[72.84127,19.02367],[72.84045,19.025],[72.83946,19.02398],[72.83867,19.02306],[72.83815,19.02244],[72.83736,19.02132],[72.83679,19.02035],[72.83618,19.01913],[72.83479,19.01594],[72.83394,19.0158],[72.83321,19.01557],[72.83238,19.0151],[72.83177,19.01588],[72.83115,19.01622],[72.82985,19.01676],[72.83033,19.01728],[72.83119,19.01839],[72.83231,19.01972],[72.83114,19.02057],[72.82983,19.02186],[72.82947,19.02153],[72.82849,19.02031],[72.82647,19.01841],[72.82568,19.0179],[72.82303,19.0174],[72.82176,19.01769],[72.8212,19.01822],[72.82032,19.01933],[72.81991,19.02031],[72.8195,19.02148],[72.81924,19.02317],[72.81878,19.02444],[72.81818,19.02532],[72.81399,19.02759],[72.81437,19.02829],[72.81559,19.03223],[72.81693,19.03743],[72.81769,19.03962],[72.81823,19.04022],[72.83752,19.03025]]]}},{"type":"Feature","properties":{"village":"Ward No 192","taluka":"Mumbai","district":"Mumbai","lgd":"0","type":"Ward"},"geometry":{"type":"Polygon","coordinates":[[[72.83842,19.01053],[72.83725,19.00854],[72.83648,19.00962],[72.83524,19.01098],[72.83425,19.01181],[72.83385,19.01225],[72.83349,19.0128],[72.83368,19.01333],[72.83342,19.01366],[72.83326,19.01406],[72.83262,19.01477],[72.83238,19.0151],[72.83321,19.01557],[72.83394,19.0158],[72.83479,19.01594],[72.83618,19.01913],[72.83679,19.02035],[72.83736,19.02132],[72.83815,19.02244],[72.83867,19.02306],[72.83946,19.02398],[72.84045,19.025],[72.84127,19.02367],[72.84208,19.02316],[72.84229,19.02291],[72.84243,19.02257],[72.84246,19.02217],[72.84233,19.02181],[72.84183,19.02113],[72.84313,19.02078],[72.8448,19.0197],[72.84379,19.01827],[72.84279,19.01698],[72.84099,19.01442],[72.83842,19.01053]]]}},{"type":"Feature","properties":{"village":"Ward No 193","taluka":"Mumbai","district":"Mumbai","lgd":"0","type":"Ward"},"geometry":{"type":"Polygon","coordinates":[[[72.82176,19.01769],[72.82303,19.0174],[72.82568,19.0179],[72.82647,19.01841],[72.82849,19.02031],[72.82947,19.02153],[72.82983,19.02186],[72.83114,19.02057],[72.83231,19.01972],[72.83119,19.01839],[72.83033,19.01728],[72.82985,19.01676],[72.83115,19.01622],[72.83177,19.01588],[72.83238,19.0151],[72.82814,19.01294],[72.82707,19.01277],[72.82556,19.01267],[72.82552,19.01227],[72.82497,19.01225],[72.82485,19.01219],[72.82477,19.01195],[72.82394,19.01191],[72.82389,19.01189],[72.82388,19.01155],[72.82291,19.01162],[72.82251,19.01144],[72.82132,19.01285],[72.81985,19.0148],[72.81854,19.01627],[72.81825,19.01622],[72.81783,19.01589],[72.81752,19.01529],[72.8164,19.01433],[72.81619,19.01223],[72.81346,19.01294],[72.81279,19.01335],[72.81218,19.01402],[72.81176,19.01488],[72.81165,19.01588],[72.81176,19.01663],[72.81179,19.01749],[72.81335,19.02357],[72.81399,19.02759],[72.81818,19.02532],[72.81878,19.02444],[72.81924,19.02317],[72.8195,19.02148],[72.81991,19.02031],[72.82032,19.01933],[72.8212,19.01822],[72.82176,19.01769]]]}},{"type":"Feature","properties":{"village":"Ward No 194","taluka":"Mumbai","district":"Mumbai","lgd":"0","type":"Ward"},"geometry":{"type":"Polygon","coordinates":[[[72.83349,19.0128],[72.83385,19.01225],[72.83425,19.01181],[72.83524,19.01098],[72.83648,19.00962],[72.83725,19.00854],[72.83649,19.00727],[72.83342,19.00913],[72.83271,19.00833],[72.83188,19.00859],[72.83095,19.00864],[72.83087,19.00861],[72.83093,19.00624],[72.82435,19.00617],[72.8191,19.00624],[72.82157,19.01073],[72.82167,19.01099],[72.82278,19.01157],[72.82291,19.01162],[72.82388,19.01155],[72.82389,19.01189],[72.82394,19.01191],[72.82477,19.01195],[72.82485,19.01219],[72.82497,19.01225],[72.82552,19.01227],[72.82556,19.01267],[72.82707,19.01277],[72.82814,19.01294],[72.83238,19.0151],[72.83262,19.01477],[72.83326,19.01406],[72.83342,19.01366],[72.83368,19.01333],[72.83349,19.0128]]]}},{"type":"Feature","properties":{"village":"Ward No 195","taluka":"Mumbai","district":"Mumbai","lgd":"0","type":"Ward"},"geometry":{"type":"Polygon","coordinates":[[[72.83346,19.00913],[72.83649,19.00727],[72.83575,19.00625],[72.83516,19.00504],[72.83403,19.00231],[72.8333,18.99937],[72.83313,18.99699],[72.83319,18.99506],[72.83147,18.99513],[72.83114,18.99818],[72.8203,18.99856],[72.81732,18.99875],[72.82153,19.00619],[72.82435,19.00617],[72.83093,19.00624],[72.83087,19.00861],[72.83095,19.00864],[72.83188,19.00859],[72.83271,19.00833],[72.83285,19.00844],[72.83335,19.0091],[72.83346,19.00913]]]}},{"type":"Feature","properties":{"village":"Ward No 196","taluka":"Mumbai","district":"Mumbai","lgd":"0","type":"Ward"},"geometry":{"type":"Polygon","coordinates":[[[72.82157,19.01073],[72.8191,19.00624],[72.82153,19.00619],[72.81732,18.99875],[72.81653,18.99726],[72.81537,18.99484],[72.81479,18.99394],[72.81469,18.99387],[72.81458,18.9939],[72.81195,18.99754],[72.81144,18.99725],[72.81108,18.99717],[72.81082,18.99813],[72.81028,18.99804],[72.81015,18.99981],[72.81021,19.00077],[72.81039,19.00172],[72.81055,19.00229],[72.81091,19.00326],[72.81198,19.00567],[72.81207,19.0061],[72.81219,19.00612],[72.81226,19.00618],[72.81229,19.00646],[72.81222,19.00677],[72.81243,19.00719],[72.81247,19.00802],[72.81243,19.00806],[72.81228,19.008],[72.81218,19.00815],[72.8123,19.00829],[72.81226,19.00842],[72.81235,19.00854],[72.81236,19.00864],[72.81209,19.00953],[72.8121,19.00975],[72.81222,19.00989],[72.8127,19.01008],[72.81291,19.01026],[72.81327,19.0101],[72.81329,19.00999],[72.81322,19.00986],[72.81333,19.00969],[72.8138,19.00952],[72.81401,19.00965],[72.81386,19.0098],[72.81385,19.00986],[72.81391,19.00991],[72.8144,19.00996],[72.8147,19.0101],[72.81492,19.01032],[72.81561,19.01116],[72.81619,19.01223],[72.8164,19.01433],[72.81752,19.01529],[72.81783,19.01589],[72.81825,19.01622],[72.81854,19.01627],[72.81985,19.0148],[72.82132,19.01285],[72.82251,19.01144],[72.82167,19.01099],[72.82157,19.01073]]]}},{"type":"Feature","properties":{"village":"Ward No 197","taluka":"Mumbai","district":"Mumbai","lgd":"0","type":"Ward"},"geometry":{"type":"Polygon","coordinates":[[[72.81913,18.99546],[72.82474,18.98491],[72.82504,18.98418],[72.82493,18.98399],[72.82294,18.9813],[72.82209,18.98005],[72.82152,18.98002],[72.82056,18.97987],[72.81157,18.97798],[72.81145,18.97798],[72.81103,18.97821],[72.81062,18.97833],[72.80973,18.97848],[72.80946,18.98019],[72.80958,18.9804],[72.80885,18.98183],[72.80873,18.98179],[72.80861,18.98209],[72.8085,18.98254],[72.80858,18.98311],[72.80886,18.98331],[72.80899,18.98334],[72.80912,18.9833],[72.80923,18.98315],[72.80935,18.9823],[72.80915,18.98208],[72.80909,18.98187],[72.80925,18.98144],[72.80987,18.98028],[72.81023,18.9804],[72.8103,18.98036],[72.81041,18.98046],[72.81057,18.98041],[72.81062,18.98056],[72.81142,18.98101],[72.81165,18.98105],[72.81157,18.98083],[72.81175,18.98071],[72.81179,18.98088],[72.81202,18.98107],[72.81223,18.9819],[72.81253,18.98252],[72.8125,18.98345],[72.81246,18.98366],[72.81235,18.98378],[72.81241,18.98384],[72.81237,18.98432],[72.81243,18.98469],[72.81283,18.98521],[72.81318,18.98576],[72.81331,18.98605],[72.81333,18.98622],[72.81349,18.98643],[72.81344,18.9868],[72.81331,18.98706],[72.81296,18.98739],[72.8125,18.98764],[72.81235,18.98766],[72.81216,18.9876],[72.81169,18.987],[72.81159,18.98691],[72.81138,18.98684],[72.81058,18.98696],[72.81,18.98714],[72.80971,18.98745],[72.8096,18.98767],[72.80955,18.98814],[72.80972,18.98889],[72.81088,18.99161],[72.81106,18.99249],[72.81109,18.99293],[72.81112,18.99379],[72.81106,18.99505],[72.81028,18.99804],[72.81082,18.99813],[72.81108,18.99717],[72.81144,18.99725],[72.81195,18.99754],[72.81458,18.9939],[72.81469,18.99387],[72.81479,18.99394],[72.81537,18.99484],[72.81653,18.99726],[72.81732,18.99875],[72.81865,18.99613],[72.81913,18.99546]]]}},{"type":"Feature","properties":{"village":"Ward No 198","taluka":"Mumbai","district":"Mumbai","lgd":"0","type":"Ward"},"geometry":{"type":"Polygon","coordinates":[[[72.83147,18.99513],[72.83166,18.99068],[72.82824,18.99142],[72.82799,18.99072],[72.82612,18.98659],[72.82534,18.98469],[72.82504,18.98418],[72.82474,18.98491],[72.82117,18.99173],[72.81913,18.99546],[72.81865,18.99613],[72.81732,18.99875],[72.8203,18.99856],[72.83114,18.99818],[72.83147,18.99513]]]}},{"type":"Feature","properties":{"village":"Ward No 199","taluka":"Mumbai","district":"Mumbai","lgd":"0","type":"Ward"},"geometry":{"type":"Polygon","coordinates":[[[72.83319,18.99506],[72.83292,18.98791],[72.82982,18.98429],[72.82684,18.98102],[72.82282,18.98009],[72.82209,18.98005],[72.82294,18.9813],[72.82493,18.98399],[72.82534,18.98469],[72.82612,18.98659],[72.82799,18.99072],[72.82824,18.99142],[72.83166,18.99068],[72.83147,18.99513],[72.83319,18.99506]]]}},{"type":"Feature","properties":{"village":"Ward No 200","taluka":"Mumbai","district":"Mumbai","lgd":"0","type":"Ward"},"geometry":{"type":"Polygon","coordinates":[[[72.84929,19.01264],[72.84762,19.00876],[72.84611,19.0094],[72.84567,19.0085],[72.84515,19.00717],[72.84517,19.00699],[72.84554,19.00638],[72.84343,19.00602],[72.84056,19.00608],[72.83989,19.00526],[72.83649,19.00727],[72.83842,19.01053],[72.84099,19.01442],[72.84279,19.01698],[72.84546,19.01475],[72.84655,19.01399],[72.84754,19.01308],[72.84929,19.01264]]]}},{"type":"Feature","properties":{"village":"Ward No 201","taluka":"Mumbai","district":"Mumbai","lgd":"0","type":"Ward"},"geometry":{"type":"Polygon","coordinates":[[[72.86719,19.01131],[72.86834,19.01027],[72.8693,19.00888],[72.8697,19.00715],[72.87047,19.0046],[72.86998,19.00491],[72.86979,19.0049],[72.86968,19.00481],[72.86934,19.0047],[72.86915,19.00452],[72.86898,19.00444],[72.86875,19.00419],[72.86874,19.00405],[72.86862,19.00402],[72.86857,19.00418],[72.86851,19.00421],[72.86835,19.00411],[72.86827,19.00393],[72.86829,19.00378],[72.8682,19.0037],[72.86817,19.00359],[72.86789,19.00356],[72.86783,19.00351],[72.86784,19.00334],[72.86779,19.00331],[72.86755,19.00357],[72.86745,19.00375],[72.8672,19.00389],[72.86679,19.00401],[72.86668,19.00415],[72.8664,19.00434],[72.86612,19.00433],[72.86606,19.00446],[72.86597,19.00451],[72.86592,19.00449],[72.86591,19.00436],[72.86583,19.00427],[72.86602,19.00388],[72.86596,19.00359],[72.86569,19.00322],[72.8653,19.00293],[72.86497,19.00283],[72.86477,19.00285],[72.86454,19.00298],[72.86438,19.00301],[72.86433,19.00295],[72.86435,19.0028],[72.86457,19.00266],[72.86462,19.00257],[72.86447,19.002],[72.86429,19.00182],[72.8639,19.00171],[72.86344,19.0017],[72.86129,19.00208],[72.86112,19.00201],[72.86101,19.00184],[72.86099,19.00142],[72.86025,19.00177],[72.86008,19.00177],[72.85694,19.00134],[72.85596,19.00069],[72.85577,19.00047],[72.85565,19.00017],[72.85547,19.00006],[72.85456,19.00014],[72.85404,18.99997],[72.85384,18.99979],[72.85375,18.99983],[72.85388,19.00077],[72.85413,19.00495],[72.8523,19.00502],[72.84928,19.00531],[72.84706,19.00564],[72.84593,19.00588],[72.84554,19.00638],[72.84515,19.00707],[72.84519,19.00736],[72.84567,19.0085],[72.84611,19.0094],[72.84762,19.00876],[72.84929,19.01264],[72.85469,19.01125],[72.85567,19.01087],[72.85673,19.0106],[72.8633,19.01522],[72.86467,19.01349],[72.86556,19.01254],[72.86652,19.01178],[72.86719,19.01131]]]}},{"type":"Feature","properties":{"village":"Ward No 202","taluka":"Mumbai","district":"Mumbai","lgd":"0","type":"Ward"},"geometry":{"type":"Polygon","coordinates":[[[72.84554,19.00638],[72.84593,19.00588],[72.84706,19.00564],[72.84928,19.00531],[72.85082,19.00514],[72.8523,19.00502],[72.85413,19.00495],[72.85384,19.00027],[72.85348,18.9987],[72.85332,18.99823],[72.85307,18.99823],[72.85271,18.99815],[72.85155,18.99819],[72.85023,18.99847],[72.84866,18.99917],[72.84643,19.00027],[72.84589,19.00059],[72.84505,19.00097],[72.84369,19.0018],[72.84205,19.0033],[72.84174,19.00366],[72.84158,19.00394],[72.84132,19.00422],[72.8406,19.00479],[72.83989,19.00526],[72.84056,19.00608],[72.84343,19.00602],[72.84554,19.00638]]]}},{"type":"Feature","properties":{"village":"Ward No 203","taluka":"Mumbai","district":"Mumbai","lgd":"0","type":"Ward"},"geometry":{"type":"Polygon","coordinates":[[[72.8418,18.99921],[72.83874,18.99498],[72.83656,18.99531],[72.83631,18.99245],[72.83619,18.99212],[72.83564,18.99119],[72.83557,18.99085],[72.83572,18.98911],[72.83568,18.98845],[72.83357,18.98826],[72.83325,18.98818],[72.83292,18.98791],[72.83319,18.99516],[72.83313,18.99699],[72.8333,18.99937],[72.83403,19.00231],[72.83516,19.00504],[72.83575,19.00625],[72.83649,19.00727],[72.83989,19.00526],[72.8406,19.00479],[72.84132,19.00422],[72.84158,19.00394],[72.84174,19.00366],[72.84205,19.0033],[72.84369,19.0018],[72.84274,19.0],[72.84234,18.99978],[72.8418,18.99921]]]}},{"type":"Feature","properties":{"village":"Ward No 204","taluka":"Mumbai","district":"Mumbai","lgd":"0","type":"Ward"},"geometry":{"type":"Polygon","coordinates":[[[72.84532,18.99643],[72.84499,18.99428],[72.84488,18.99391],[72.84469,18.99355],[72.84434,18.99315],[72.84416,18.99303],[72.84366,18.99286],[72.84307,18.99287],[72.8424,18.99275],[72.84224,18.99263],[72.84179,18.99205],[72.84173,18.99192],[72.84171,18.99148],[72.8415,18.9902],[72.84116,18.98936],[72.84134,18.98807],[72.83599,18.98847],[72.83568,18.98845],[72.83572,18.98911],[72.83557,18.99085],[72.83564,18.99119],[72.83619,18.99212],[72.83631,18.99245],[72.83656,18.99531],[72.83874,18.99498],[72.8418,18.99921],[72.84234,18.99978],[72.84274,19.0],[72.84369,19.0018],[72.84505,19.00097],[72.84589,19.00059],[72.84643,19.00027],[72.84624,18.99847],[72.84593,18.9976],[72.84532,18.99643]]]}},{"type":"Feature","properties":{"village":"Ward No 205","taluka":"Mumbai","district":"Mumbai","lgd":"0","type":"Ward"},"geometry":{"type":"Polygon","coordinates":[[[72.84859,18.99381],[72.84805,18.99247],[72.84764,18.99174],[72.84739,18.99111],[72.84727,18.99096],[72.84673,18.99061],[72.8466,18.99039],[72.84639,18.9898],[72.84597,18.9891],[72.84534,18.98853],[72.84496,18.98843],[72.84435,18.98795],[72.84393,18.98786],[72.84134,18.98807],[72.84116,18.98936],[72.8415,18.9902],[72.84162,18.99087],[72.84174,18.99196],[72.84189,18.9922],[72.84234,18.99272],[72.84298,18.99286],[72.84355,18.99284],[72.84373,18.99288],[72.84426,18.99309],[72.84469,18.99355],[72.84488,18.99391],[72.84499,18.99428],[72.84532,18.99643],[72.84593,18.9976],[72.84624,18.99847],[72.84643,19.00027],[72.84866,18.99917],[72.85023,18.99847],[72.84882,18.99588],[72.84876,18.99547],[72.84871,18.99429],[72.84859,18.99381]]]}},{"type":"Feature","properties":{"village":"Ward No 206","taluka":"Mumbai","district":"Mumbai","lgd":"0","type":"Ward"},"geometry":{"type":"Polygon","coordinates":[[[72.86101,19.00108],[72.86137,19.00005],[72.86164,18.9995],[72.8617,18.99915],[72.86151,18.99829],[72.86099,18.99757],[72.86109,18.99614],[72.86116,18.99604],[72.86134,18.99592],[72.86221,18.99557],[72.86205,18.99524],[72.86192,18.99524],[72.86138,18.99553],[72.86112,18.99562],[72.86101,18.9956],[72.86094,18.99552],[72.86064,18.99514],[72.86048,18.99485],[72.86048,18.9947],[72.86033,18.99455],[72.86061,18.99381],[72.85947,18.99338],[72.85983,18.9926],[72.85979,18.99256],[72.85779,18.99194],[72.85727,18.99183],[72.85713,18.99172],[72.85707,18.99161],[72.8571,18.99144],[72.86122,18.98167],[72.86121,18.98158],[72.85773,18.97834],[72.85592,18.97872],[72.85589,18.9786],[72.8502,18.98024],[72.8501,18.98003],[72.84914,18.97958],[72.84619,18.97797],[72.84574,18.978],[72.84515,18.97815],[72.84482,18.97834],[72.84468,18.97859],[72.84476,18.97919],[72.84506,18.97973],[72.8458,18.98136],[72.84596,18.98191],[72.84594,18.9822],[72.84575,18.98232],[72.84411,18.98295],[72.8426,18.98333],[72.84134,18.98807],[72.84381,18.98785],[72.84417,18.9879],[72.84435,18.98795],[72.84496,18.98843],[72.84534,18.98853],[72.84597,18.9891],[72.84639,18.9898],[72.84665,18.99051],[72.8468,18.99067],[72.84727,18.99096],[72.84739,18.99111],[72.84764,18.99174],[72.84805,18.99247],[72.84859,18.99381],[72.84871,18.99429],[72.84876,18.99547],[72.84882,18.99588],[72.85023,18.99847],[72.85155,18.99819],[72.85271,18.99815],[72.85307,18.99823],[72.85332,18.99823],[72.85348,18.9987],[72.85375,18.99983],[72.85384,18.99979],[72.85404,18.99997],[72.85456,19.00014],[72.85536,19.00005],[72.85557,19.00009],[72.85565,19.00017],[72.85584,19.00058],[72.8566,19.00114],[72.85694,19.00134],[72.85968,19.00174],[72.86025,19.00177],[72.86099,19.00142],[72.86101,19.00108]]]}},{"type":"Feature","properties":{"village":"Ward No 207","taluka":"Mumbai","district":"Mumbai","lgd":"0","type":"Ward"},"geometry":{"type":"Polygon","coordinates":[[[72.83262,18.97225],[72.8322,18.97162],[72.8323,18.97213],[72.83255,18.97292],[72.83254,18.9735],[72.83245,18.97378],[72.83163,18.97475],[72.83019,18.97659],[72.82995,18.97696],[72.82898,18.9781],[72.82736,18.98022],[72.82684,18.98102],[72.82982,18.98429],[72.83314,18.98812],[72.83357,18.98826],[72.83568,18.98845],[72.83516,18.98413],[72.83483,18.98268],[72.83414,18.98047],[72.83384,18.97919],[72.83356,18.97741],[72.83341,18.97688],[72.83338,18.9762],[72.83354,18.97518],[72.83366,18.97486],[72.83367,18.97412],[72.83339,18.97323],[72.83262,18.97225]]]}},{"type":"Feature","properties":{"village":"Ward No 208","taluka":"Mumbai","district":"Mumbai","lgd":"0","type":"Ward"},"geometry":{"type":"Polygon","coordinates":[[[72.84574,18.978],[72.84619,18.97797],[72.84909,18.97956],[72.84876,18.97791],[72.84856,18.97586],[72.84511,18.97629],[72.84483,18.97628],[72.84433,18.97617],[72.8445,18.97555],[72.84476,18.97428],[72.84466,18.9741],[72.84466,18.97402],[72.845,18.97241],[72.84493,18.97213],[72.84488,18.97206],[72.84478,18.97202],[72.84349,18.97175],[72.8432,18.97175],[72.84272,18.97189],[72.84217,18.97227],[72.84169,18.97246],[72.84091,18.97257],[72.84031,18.97251],[72.84011,18.97414],[72.84053,18.97595],[72.8405,18.9761],[72.84036,18.97617],[72.83834,18.97625],[72.8381,18.97619],[72.83779,18.97589],[72.8374,18.97574],[72.83433,18.9755],[72.83351,18.97532],[72.83338,18.9762],[72.83341,18.97688],[72.83356,18.97741],[72.83384,18.97919],[72.83414,18.98047],[72.83483,18.98268],[72.83516,18.98413],[72.83568,18.98845],[72.83599,18.98847],[72.84134,18.98807],[72.8426,18.98333],[72.84411,18.98295],[72.84575,18.98232],[72.84594,18.9822],[72.84596,18.98191],[72.8458,18.98136],[72.84506,18.97973],[72.84476,18.97919],[72.84469,18.9789],[72.84468,18.97859],[72.84482,18.97834],[72.84515,18.97815],[72.84574,18.978]]]}},{"type":"Feature","properties":{"village":"Ward No 209","taluka":"Mumbai","district":"Mumbai","lgd":"0","type":"Ward"},"geometry":{"type":"Polygon","coordinates":[[[72.8502,18.98024],[72.85589,18.9786],[72.85519,18.97584],[72.85593,18.97566],[72.85599,18.97549],[72.85579,18.97502],[72.85554,18.9748],[72.85548,18.97454],[72.85445,18.9748],[72.8542,18.97482],[72.8541,18.97336],[72.85418,18.97284],[72.85407,18.97253],[72.85384,18.97225],[72.85367,18.97213],[72.85341,18.97204],[72.8533,18.97191],[72.85307,18.97198],[72.85261,18.97195],[72.85134,18.97223],[72.85013,18.97304],[72.84984,18.97302],[72.84976,18.97294],[72.84977,18.9729],[72.84994,18.97287],[72.85002,18.97278],[72.85019,18.97221],[72.85016,18.97202],[72.84997,18.97166],[72.84998,18.97159],[72.85045,18.97069],[72.85048,18.97045],[72.85068,18.97044],[72.85071,18.97038],[72.85087,18.97033],[72.85078,18.96884],[72.85104,18.96885],[72.85223,18.96868],[72.85215,18.96796],[72.85227,18.96795],[72.85225,18.96781],[72.85185,18.96722],[72.85111,18.96744],[72.85096,18.96708],[72.85054,18.96706],[72.85027,18.96588],[72.84996,18.96523],[72.84982,18.9651],[72.84928,18.96315],[72.84775,18.96341],[72.84669,18.96366],[72.84612,18.96371],[72.84587,18.96385],[72.8458,18.96408],[72.84571,18.9642],[72.84561,18.96426],[72.84538,18.96416],[72.84474,18.96359],[72.84435,18.96351],[72.84014,18.96429],[72.84063,18.96564],[72.84065,18.96592],[72.84075,18.96617],[72.84088,18.96675],[72.84129,18.96755],[72.84155,18.96778],[72.84139,18.96788],[72.84024,18.9682],[72.84048,18.96882],[72.84065,18.96907],[72.84084,18.96978],[72.8406,18.9706],[72.84031,18.97251],[72.84091,18.97257],[72.84169,18.97246],[72.84217,18.97227],[72.84272,18.97189],[72.8432,18.97175],[72.84349,18.97175],[72.84488,18.97206],[72.845,18.97241],[72.84466,18.97402],[72.84466,18.9741],[72.84476,18.97428],[72.8445,18.97555],[72.84433,18.97617],[72.84483,18.97628],[72.84511,18.97629],[72.84856,18.97586],[72.84876,18.97791],[72.84909,18.97956],[72.85005,18.98004],[72.8501,18.98003],[72.8502,18.98024]]]}},{"type":"Feature","properties":{"village":"Ward No 210","taluka":"Mumbai","district":"Mumbai","lgd":"0","type":"Ward"},"geometry":{"type":"Polygon","coordinates":[[[72.84064,18.96567],[72.84014,18.96429],[72.83953,18.96442],[72.8392,18.96459],[72.8389,18.96485],[72.83878,18.96487],[72.8387,18.96482],[72.83818,18.96429],[72.8376,18.96289],[72.83742,18.96256],[72.83731,18.9625],[72.83512,18.96252],[72.83427,18.96221],[72.83312,18.96212],[72.83189,18.96189],[72.83204,18.96437],[72.8321,18.96482],[72.83264,18.96684],[72.83268,18.96743],[72.83262,18.96888],[72.8324,18.97099],[72.83238,18.97118],[72.8322,18.97162],[72.83262,18.97225],[72.83332,18.97311],[72.83346,18.97341],[72.83368,18.97423],[72.83366,18.97486],[72.83351,18.97532],[72.83433,18.9755],[72.8374,18.97574],[72.83779,18.97589],[72.8381,18.97619],[72.83851,18.97627],[72.84029,18.97619],[72.84053,18.97605],[72.84046,18.97554],[72.84013,18.97431],[72.84011,18.97399],[72.84052,18.97101],[72.84084,18.96978],[72.84065,18.96907],[72.84048,18.96882],[72.84024,18.9682],[72.84139,18.96788],[72.84155,18.96778],[72.84129,18.96755],[72.84088,18.96675],[72.84075,18.96617],[72.84065,18.96592],[72.84064,18.96567]]]}},{"type":"Feature","properties":{"village":"Ward No 211","taluka":"Mumbai","district":"Mumbai","lgd":"0","type":"Ward"},"geometry":{"type":"Polygon","coordinates":[[[72.8325,18.97364],[72.83255,18.97292],[72.8323,18.97213],[72.8322,18.97162],[72.83238,18.97118],[72.8324,18.97099],[72.83262,18.96888],[72.83268,18.96743],[72.83264,18.96684],[72.8321,18.96482],[72.83198,18.96356],[72.83069,18.96471],[72.83004,18.9654],[72.82884,18.96682],[72.82872,18.96691],[72.82468,18.96802],[72.8252,18.96975],[72.82576,18.97128],[72.8266,18.97392],[72.82783,18.97392],[72.82933,18.97359],[72.82957,18.97492],[72.82963,18.975],[72.83049,18.97486],[72.83163,18.97475],[72.83245,18.97378],[72.8325,18.97364]]]}},{"type":"Feature","properties":{"village":"Ward No 212","taluka":"Mumbai","district":"Mumbai","lgd":"0","type":"Ward"},"geometry":{"type":"Polygon","coordinates":[[[72.83019,18.97659],[72.83163,18.97475],[72.8296,18.975],[72.82937,18.97372],[72.82931,18.97358],[72.82783,18.97392],[72.8266,18.97392],[72.82576,18.97128],[72.8252,18.96975],[72.82468,18.96802],[72.82201,18.96862],[72.81858,18.96898],[72.8193,18.97186],[72.81997,18.97416],[72.82149,18.97745],[72.82282,18.98009],[72.82684,18.98102],[72.82736,18.98022],[72.82898,18.9781],[72.82995,18.97696],[72.83019,18.97659]]]}},{"type":"Feature","properties":{"village":"Ward No 213","taluka":"Mumbai","district":"Mumbai","lgd":"0","type":"Ward"},"geometry":{"type":"Polygon","coordinates":[[[72.8252,18.96789],[72.82827,18.96704],[72.82872,18.96691],[72.82884,18.96682],[72.83004,18.9654],[72.83069,18.96471],[72.83198,18.96356],[72.83189,18.96189],[72.8286,18.96176],[72.82442,18.96176],[72.82489,18.96506],[72.8252,18.96789]]]}},{"type":"Feature","properties":{"village":"Ward No 214","taluka":"Mumbai","district":"Mumbai","lgd":"0","type":"Ward"},"geometry":{"type":"Polygon","coordinates":[[[72.82489,18.96506],[72.82442,18.96176],[72.82626,18.96176],[72.82616,18.95827],[72.82609,18.95805],[72.82587,18.95846],[72.8252,18.95919],[72.82314,18.9616],[72.82301,18.96169],[72.81881,18.9618],[72.81884,18.96205],[72.81912,18.96262],[72.81921,18.96413],[72.81616,18.96298],[72.81832,18.96809],[72.81858,18.96898],[72.82201,18.96862],[72.8252,18.96789],[72.82489,18.96506]]]}},{"type":"Feature","properties":{"village":"Ward No 215","taluka":"Mumbai","district":"Mumbai","lgd":"0","type":"Ward"},"geometry":{"type":"Polygon","coordinates":[[[72.81616,18.96298],[72.8156,18.96184],[72.81541,18.96183],[72.81399,18.96187],[72.81381,18.96193],[72.81366,18.96228],[72.81349,18.96369],[72.81315,18.96438],[72.81304,18.96485],[72.81307,18.96549],[72.81328,18.96606],[72.81339,18.96614],[72.81374,18.96661],[72.81406,18.96736],[72.81474,18.9682],[72.81538,18.96927],[72.81541,18.96951],[72.81515,18.96986],[72.81508,18.97013],[72.81511,18.9714],[72.8149,18.97257],[72.81471,18.97302],[72.81439,18.97344],[72.81409,18.97378],[72.81356,18.97423],[72.81316,18.97472],[72.81179,18.97715],[72.81145,18.97798],[72.82056,18.97987],[72.82152,18.98002],[72.82282,18.98009],[72.82149,18.97745],[72.81997,18.97416],[72.8193,18.97186],[72.81858,18.96898],[72.81832,18.96809],[72.81616,18.96298]]]}},{"type":"Feature","properties":{"village":"Ward No 216","taluka":"Mumbai","district":"Mumbai","lgd":"0","type":"Ward"},"geometry":{"type":"Polygon","coordinates":[[[72.81374,18.96661],[72.81328,18.96606],[72.81305,18.96608],[72.81266,18.96621],[72.81247,18.96619],[72.81234,18.9661],[72.81202,18.96566],[72.81178,18.96497],[72.81167,18.96479],[72.8111,18.96438],[72.81036,18.96402],[72.81015,18.96386],[72.80995,18.96362],[72.80933,18.96362],[72.80885,18.96371],[72.80794,18.96408],[72.80778,18.96407],[72.80729,18.96392],[72.80618,18.9642],[72.80553,18.96449],[72.80507,18.96457],[72.80466,18.96457],[72.80364,18.96416],[72.80347,18.96404],[72.80309,18.96316],[72.80295,18.96297],[72.80286,18.96269],[72.80259,18.96238],[72.80246,18.96209],[72.80236,18.96198],[72.80211,18.96203],[72.80136,18.96254],[72.80079,18.96264],[72.80061,18.96236],[72.79989,18.9626],[72.79915,18.96277],[72.80022,18.9672],[72.80147,18.97186],[72.80186,18.97274],[72.80436,18.97751],[72.80493,18.97824],[72.80523,18.97853],[72.8057,18.97887],[72.8064,18.97924],[72.80946,18.98019],[72.80973,18.97848],[72.81091,18.97825],[72.81145,18.97798],[72.81179,18.97715],[72.81316,18.97472],[72.81356,18.97423],[72.81428,18.97358],[72.81471,18.97302],[72.8149,18.97257],[72.81511,18.9714],[72.81509,18.97004],[72.81515,18.96986],[72.81541,18.96951],[72.8154,18.96937],[72.81534,18.96915],[72.81474,18.9682],[72.81406,18.96736],[72.81374,18.96661]]]}},{"type":"Feature","properties":{"village":"Ward No 217","taluka":"Mumbai","district":"Mumbai","lgd":"0","type":"Ward"},"geometry":{"type":"Polygon","coordinates":[[[72.81305,18.96608],[72.81328,18.96606],[72.81307,18.96549],[72.81306,18.96466],[72.81349,18.96369],[72.81366,18.96228],[72.81378,18.96198],[72.81385,18.9619],[72.8156,18.96184],[72.81572,18.96197],[72.81616,18.96298],[72.81921,18.96413],[72.81912,18.96262],[72.81884,18.96205],[72.81881,18.9618],[72.82301,18.96169],[72.82314,18.9616],[72.8252,18.95919],[72.82587,18.95846],[72.82609,18.95805],[72.82183,18.95804],[72.81961,18.95792],[72.81851,18.95765],[72.81288,18.9558],[72.81218,18.95527],[72.81177,18.95397],[72.80999,18.9546],[72.80859,18.95495],[72.80838,18.95496],[72.80831,18.95492],[72.80833,18.9547],[72.80828,18.95463],[72.80816,18.9546],[72.80796,18.95464],[72.80792,18.95483],[72.80785,18.95492],[72.80771,18.95498],[72.80777,18.95508],[72.8077,18.95513],[72.80847,18.95701],[72.80868,18.9574],[72.80955,18.95868],[72.80974,18.95905],[72.80975,18.95921],[72.80866,18.96109],[72.80757,18.96352],[72.80729,18.96392],[72.80778,18.96407],[72.80794,18.96408],[72.80885,18.96371],[72.80933,18.96362],[72.80995,18.96362],[72.81015,18.96386],[72.81036,18.96402],[72.8111,18.96438],[72.81167,18.96479],[72.81178,18.96497],[72.81202,18.96566],[72.81234,18.9661],[72.81247,18.96619],[72.81266,18.96621],[72.81305,18.96608]]]}},{"type":"Feature","properties":{"village":"Ward No 218","taluka":"Mumbai","district":"Mumbai","lgd":"0","type":"Ward"},"geometry":{"type":"Polygon","coordinates":[[[72.81875,18.94933],[72.81861,18.94927],[72.81848,18.94946],[72.81848,18.94964],[72.81774,18.95045],[72.81731,18.95083],[72.81599,18.95169],[72.81542,18.95216],[72.81343,18.95329],[72.81177,18.95397],[72.81218,18.95527],[72.81267,18.95568],[72.81306,18.95589],[72.81666,18.95706],[72.81919,18.95784],[72.81961,18.95792],[72.82183,18.95804],[72.82609,18.95805],[72.82508,18.95572],[72.82649,18.95365],[72.82624,18.95344],[72.82576,18.95321],[72.82532,18.95313],[72.82338,18.95219],[72.8229,18.95188],[72.82208,18.95144],[72.82025,18.95055],[72.81875,18.94933]]]}},{"type":"Feature","properties":{"village":"Ward No 219","taluka":"Mumbai","district":"Mumbai","lgd":"0","type":"Ward"},"geometry":{"type":"Polygon","coordinates":[[[72.80757,18.96352],[72.80866,18.96109],[72.80967,18.95939],[72.80976,18.95912],[72.80955,18.95868],[72.80868,18.9574],[72.80847,18.95701],[72.8077,18.95513],[72.80777,18.95508],[72.80771,18.95498],[72.80785,18.95492],[72.80792,18.95483],[72.80796,18.95464],[72.80772,18.95447],[72.80746,18.95395],[72.80701,18.95343],[72.8066,18.9532],[72.80649,18.95306],[72.80607,18.95293],[72.80532,18.95258],[72.80463,18.95163],[72.8045,18.95119],[72.80435,18.95101],[72.80374,18.95075],[72.80331,18.95045],[72.80275,18.94998],[72.80235,18.94942],[72.80191,18.94903],[72.80132,18.9488],[72.79978,18.94843],[72.79952,18.94833],[72.79827,18.94743],[72.79787,18.94687],[72.79773,18.94618],[72.79753,18.94573],[72.79746,18.94564],[72.79695,18.94529],[72.79651,18.94481],[72.79634,18.94441],[72.79566,18.94359],[72.79537,18.94246],[72.79536,18.94212],[72.7952,18.9415],[72.79491,18.94105],[72.79481,18.9406],[72.79452,18.9399],[72.79464,18.93959],[72.79431,18.93948],[72.79394,18.93923],[72.79369,18.93914],[72.79341,18.93916],[72.79276,18.93933],[72.79258,18.9392],[72.79226,18.93909],[72.79218,18.93917],[72.79211,18.93933],[72.79191,18.93954],[72.79191,18.93974],[72.79279,18.94173],[72.79296,18.9423],[72.79283,18.9426],[72.79296,18.94275],[72.79318,18.94334],[72.79329,18.94351],[72.79337,18.94405],[72.79325,18.94434],[72.79253,18.94511],[72.79239,18.94518],[72.79224,18.94534],[72.79216,18.9455],[72.79215,18.94571],[72.79204,18.9458],[72.79215,18.94603],[72.79211,18.94623],[72.79192,18.94669],[72.79196,18.94689],[72.79193,18.94708],[72.79213,18.94722],[72.7921,18.94762],[72.79205,18.94772],[72.7921,18.94781],[72.79197,18.94815],[72.79189,18.94821],[72.79179,18.94821],[72.79156,18.94906],[72.79157,18.94918],[72.79172,18.94943],[72.79188,18.9499],[72.79207,18.9501],[72.7921,18.95042],[72.79239,18.95086],[72.7925,18.95113],[72.7925,18.95131],[72.79271,18.95157],[72.79274,18.95183],[72.79287,18.95199],[72.79293,18.95225],[72.79307,18.95246],[72.79435,18.95341],[72.79561,18.95493],[72.79568,18.9551],[72.79556,18.95536],[72.7956,18.95586],[72.79572,18.95617],[72.79592,18.95638],[72.796,18.95657],[72.79618,18.95658],[72.79635,18.95666],[72.79644,18.95661],[72.79646,18.95651],[72.79656,18.95648],[72.79702,18.95659],[72.79846,18.95846],[72.79882,18.95996],[72.79878,18.96025],[72.79882,18.96123],[72.79915,18.96277],[72.79989,18.9626],[72.80061,18.96236],[72.80079,18.96264],[72.80136,18.96254],[72.80211,18.96203],[72.80236,18.96198],[72.80246,18.96209],[72.80259,18.96238],[72.80286,18.96269],[72.80295,18.96297],[72.80309,18.96316],[72.80341,18.96393],[72.80355,18.96411],[72.80452,18.96454],[72.80507,18.96457],[72.80553,18.96449],[72.80618,18.9642],[72.80729,18.96392],[72.80757,18.96352]]]}},{"type":"Feature","properties":{"village":"Ward No 220","taluka":"Mumbai","district":"Mumbai","lgd":"0","type":"Ward"},"geometry":{"type":"Polygon","coordinates":[[[72.83189,18.96189],[72.83166,18.95963],[72.8319,18.95819],[72.83014,18.95746],[72.829,18.95688],[72.82836,18.95667],[72.82837,18.95652],[72.82867,18.95627],[72.82939,18.95537],[72.8272,18.95405],[72.82706,18.95391],[72.82702,18.95372],[72.82649,18.95365],[72.82508,18.95572],[72.82603,18.95784],[72.82616,18.95827],[72.82626,18.96176],[72.8286,18.96176],[72.83189,18.96189]]]}},{"type":"Feature","properties":{"village":"Ward No 221","taluka":"Mumbai","district":"Mumbai","lgd":"0","type":"Ward"},"geometry":{"type":"Polygon","coordinates":[[[72.83174,18.95404],[72.83317,18.9493],[72.83378,18.94754],[72.83081,18.94531],[72.83037,18.9456],[72.82919,18.9459],[72.82913,18.94599],[72.82888,18.94682],[72.82872,18.94759],[72.82889,18.94877],[72.82882,18.94952],[72.82885,18.95088],[72.82875,18.95112],[72.82864,18.95118],[72.82841,18.95122],[72.82795,18.95113],[72.82785,18.95115],[72.82775,18.95138],[72.82768,18.9514],[72.82642,18.95126],[72.82598,18.95103],[72.82589,18.95103],[72.82529,18.95311],[72.82576,18.95321],[72.82624,18.95344],[72.82649,18.95365],[72.82702,18.95372],[72.82706,18.95391],[72.8272,18.95405],[72.82939,18.95537],[72.82867,18.95627],[72.82837,18.95652],[72.82836,18.95667],[72.829,18.95688],[72.83014,18.95746],[72.8319,18.95819],[72.83202,18.95719],[72.8321,18.95568],[72.83209,18.95464],[72.83174,18.95404]]]}},{"type":"Feature","properties":{"village":"Ward No 222","taluka":"Mumbai","district":"Mumbai","lgd":"0","type":"Ward"},"geometry":{"type":"Polygon","coordinates":[[[72.82589,18.95103],[72.82598,18.95103],[72.82642,18.95126],[72.82768,18.9514],[72.82775,18.95138],[72.82785,18.95115],[72.82795,18.95113],[72.82841,18.95122],[72.82864,18.95118],[72.82875,18.95112],[72.82885,18.95088],[72.82882,18.94952],[72.82889,18.94877],[72.82872,18.94759],[72.82888,18.94682],[72.82913,18.94599],[72.82919,18.9459],[72.83037,18.9456],[72.83081,18.94531],[72.83044,18.94499],[72.8298,18.94429],[72.829,18.94352],[72.82875,18.9432],[72.82669,18.94246],[72.8259,18.94208],[72.82371,18.94143],[72.82344,18.94138],[72.82339,18.94159],[72.82318,18.94157],[72.82269,18.94338],[72.82133,18.94605],[72.81902,18.94902],[72.81873,18.94916],[72.81861,18.94927],[72.81908,18.94956],[72.82025,18.95055],[72.82208,18.95144],[72.8229,18.95188],[72.82338,18.95219],[72.82529,18.95311],[72.82589,18.95103]]]}},{"type":"Feature","properties":{"village":"Ward No 223","taluka":"Mumbai","district":"Mumbai","lgd":"0","type":"Ward"},"geometry":{"type":"Polygon","coordinates":[[[72.84398,18.9636],[72.84444,18.96351],[72.84474,18.96359],[72.84538,18.96416],[72.84561,18.96426],[72.84571,18.9642],[72.8458,18.96408],[72.84587,18.96385],[72.84612,18.96371],[72.84669,18.96366],[72.84775,18.96341],[72.84928,18.96315],[72.84766,18.95641],[72.84709,18.95424],[72.84637,18.95441],[72.84624,18.9544],[72.84579,18.95383],[72.84372,18.95428],[72.84334,18.95429],[72.84281,18.95417],[72.84211,18.95434],[72.84199,18.95431],[72.84186,18.95381],[72.84126,18.95399],[72.84,18.95427],[72.83953,18.95446],[72.83913,18.95479],[72.83894,18.95498],[72.83859,18.95567],[72.83853,18.95572],[72.83804,18.9558],[72.83795,18.95587],[72.83732,18.95601],[72.83614,18.95576],[72.83564,18.95575],[72.83543,18.9557],[72.83537,18.95576],[72.83517,18.95575],[72.83503,18.95566],[72.83479,18.95577],[72.8348,18.95601],[72.83491,18.95632],[72.8348,18.95683],[72.83375,18.95668],[72.83363,18.9574],[72.83261,18.95812],[72.83244,18.95817],[72.8319,18.95819],[72.83166,18.95963],[72.83189,18.96189],[72.83312,18.96212],[72.83427,18.96221],[72.83512,18.96252],[72.83731,18.9625],[72.83742,18.96256],[72.8376,18.96289],[72.83818,18.96429],[72.83878,18.96487],[72.8389,18.96485],[72.8392,18.96459],[72.83953,18.96442],[72.8398,18.96434],[72.84398,18.9636]]]}},{"type":"Feature","properties":{"village":"Ward No 224","taluka":"Mumbai","district":"Mumbai","lgd":"0","type":"Ward"},"geometry":{"type":"Polygon","coordinates":[[[72.83374,18.9567],[72.8348,18.95683],[72.83491,18.95632],[72.83476,18.95582],[72.83479,18.95577],[72.83503,18.95566],[72.83517,18.95575],[72.83537,18.95576],[72.83543,18.9557],[72.83564,18.95575],[72.83614,18.95576],[72.83732,18.95601],[72.83795,18.95587],[72.83804,18.9558],[72.83853,18.95572],[72.83859,18.95567],[72.83894,18.95498],[72.83934,18.95459],[72.83953,18.95446],[72.84,18.95427],[72.84126,18.95399],[72.84186,18.95381],[72.84199,18.95431],[72.84211,18.95434],[72.84281,18.95417],[72.84334,18.95429],[72.84372,18.95428],[72.84579,18.95383],[72.84624,18.9544],[72.84637,18.95441],[72.84709,18.95424],[72.84717,18.95409],[72.84706,18.95403],[72.84657,18.95202],[72.8467,18.952],[72.84672,18.95191],[72.8465,18.95175],[72.84621,18.95057],[72.84654,18.95045],[72.84673,18.94881],[72.84595,18.9488],[72.84292,18.9494],[72.8421,18.94975],[72.84194,18.94969],[72.84139,18.94911],[72.84103,18.94896],[72.84045,18.94894],[72.83757,18.94911],[72.83637,18.94881],[72.8354,18.94867],[72.83502,18.94851],[72.8347,18.94829],[72.83378,18.94754],[72.83317,18.9493],[72.83174,18.95404],[72.83209,18.95464],[72.8321,18.95568],[72.83202,18.95719],[72.8319,18.95819],[72.83244,18.95817],[72.83261,18.95812],[72.83363,18.9574],[72.83374,18.9567]]]}},{"type":"Feature","properties":{"village":"Ward No 226","taluka":"Mumbai","district":"Mumbai","lgd":"0","type":"Ward"},"geometry":{"type":"Polygon","coordinates":[[[72.83142,18.92651],[72.83206,18.92489],[72.83115,18.92426],[72.82935,18.92284],[72.82714,18.92121],[72.82683,18.92107],[72.82629,18.92104],[72.8257,18.91923],[72.82557,18.91894],[72.82542,18.91873],[72.82213,18.91478],[72.81898,18.91122],[72.81774,18.90999],[72.81712,18.90953],[72.81598,18.90815],[72.81478,18.90878],[72.81146,18.91162],[72.81167,18.91185],[72.81223,18.91173],[72.81266,18.91176],[72.81307,18.91186],[72.81388,18.91233],[72.81511,18.91316],[72.81541,18.91319],[72.81537,18.91355],[72.81558,18.91373],[72.81532,18.91402],[72.81626,18.91513],[72.8164,18.91552],[72.81636,18.91602],[72.81628,18.91621],[72.81571,18.91704],[72.81571,18.91727],[72.81672,18.9185],[72.81696,18.9186],[72.81705,18.91859],[72.81839,18.91756],[72.81851,18.91759],[72.81866,18.91776],[72.81882,18.91777],[72.81936,18.91732],[72.81959,18.91761],[72.81974,18.91769],[72.82006,18.91773],[72.82022,18.91767],[72.82054,18.91743],[72.82075,18.91712],[72.82194,18.91629],[72.82258,18.91706],[72.82252,18.91729],[72.82265,18.91741],[72.82285,18.91749],[72.82256,18.91777],[72.82248,18.91792],[72.8226,18.91829],[72.82298,18.91809],[72.82364,18.91879],[72.82445,18.91978],[72.82436,18.91988],[72.82441,18.91997],[72.82519,18.91946],[72.82546,18.91996],[72.82549,18.92026],[72.82511,18.92041],[72.82494,18.92056],[72.82489,18.92068],[72.82487,18.9209],[72.82503,18.92157],[72.82504,18.92191],[72.82501,18.9221],[72.82487,18.92242],[72.82478,18.9225],[72.82464,18.92254],[72.82345,18.92251],[72.82332,18.92256],[72.82225,18.92341],[72.82199,18.92347],[72.82122,18.92346],[72.82089,18.92352],[72.8184,18.92542],[72.81817,18.92522],[72.81805,18.92522],[72.81792,18.92533],[72.81791,18.92545],[72.81844,18.9261],[72.81997,18.9277],[72.82062,18.92844],[72.82127,18.92929],[72.8218,18.93012],[72.82228,18.93101],[72.82285,18.93234],[72.8233,18.93364],[72.83126,18.93253],[72.83134,18.92984],[72.83136,18.92701],[72.83142,18.92651]]]}},{"type":"Feature","properties":{"village":"Ward No 227","taluka":"Mumbai","district":"Mumbai","lgd":"0","type":"Ward"},"geometry":{"type":"Polygon","coordinates":[[[72.83078,18.92121],[72.82987,18.91983],[72.82952,18.9194],[72.82782,18.91775],[72.8267,18.91634],[72.82585,18.91553],[72.8266,18.91468],[72.82837,18.91319],[72.82851,18.91261],[72.82841,18.91218],[72.82768,18.91166],[72.82751,18.91149],[72.8267,18.91027],[72.82526,18.90763],[72.82486,18.9078],[72.82471,18.90791],[72.82258,18.91015],[72.82248,18.91037],[72.82234,18.9105],[72.82215,18.91051],[72.82183,18.91038],[72.82137,18.90994],[72.82032,18.90918],[72.8203,18.90902],[72.82039,18.9088],[72.82067,18.90846],[72.82068,18.90824],[72.82047,18.90797],[72.81965,18.90728],[72.81948,18.90727],[72.81923,18.90746],[72.81829,18.90661],[72.81826,18.90645],[72.81856,18.90609],[72.81877,18.90569],[72.81903,18.9054],[72.81911,18.9052],[72.81911,18.90497],[72.81862,18.90439],[72.81852,18.90385],[72.81841,18.90356],[72.81828,18.90348],[72.81819,18.90356],[72.81814,18.90354],[72.81803,18.90328],[72.81775,18.90306],[72.81773,18.90298],[72.81795,18.90298],[72.81796,18.90273],[72.81769,18.90274],[72.81769,18.90252],[72.81744,18.9025],[72.81746,18.90229],[72.81778,18.90229],[72.81785,18.9022],[72.81755,18.90084],[72.81685,18.89974],[72.8159,18.89871],[72.81539,18.898],[72.81495,18.89679],[72.81479,18.89648],[72.81397,18.89531],[72.81363,18.89506],[72.81376,18.89494],[72.8136,18.89489],[72.8136,18.89468],[72.81381,18.89466],[72.81372,18.89452],[72.81394,18.89432],[72.81397,18.89421],[72.81367,18.89392],[72.81351,18.89395],[72.81328,18.8938],[72.81317,18.89386],[72.8131,18.89396],[72.81299,18.89398],[72.81291,18.89393],[72.81292,18.89378],[72.8127,18.89371],[72.81245,18.89373],[72.81239,18.89369],[72.81238,18.89356],[72.81221,18.89357],[72.81217,18.89349],[72.8122,18.89344],[72.81253,18.89346],[72.81267,18.89332],[72.81267,18.89323],[72.81263,18.89308],[72.81242,18.89304],[72.81221,18.89283],[72.81218,18.89267],[72.81231,18.89255],[72.81215,18.8922],[72.81208,18.89215],[72.81183,18.89211],[72.81159,18.89175],[72.81152,18.89172],[72.81159,18.89205],[72.81146,18.89202],[72.81123,18.89184],[72.81104,18.89175],[72.81091,18.89136],[72.81081,18.89124],[72.81062,18.89113],[72.81026,18.89066],[72.81019,18.89067],[72.81011,18.89078],[72.81001,18.89079],[72.80995,18.89089],[72.8099,18.89088],[72.80973,18.89077],[72.80949,18.89035],[72.80936,18.89031],[72.80933,18.89057],[72.80947,18.89077],[72.80946,18.89098],[72.80979,18.89133],[72.80987,18.89153],[72.80984,18.89162],[72.80974,18.89166],[72.80963,18.89161],[72.80909,18.89097],[72.80902,18.89091],[72.80882,18.89087],[72.80873,18.89076],[72.80856,18.89078],[72.80836,18.89092],[72.80829,18.89087],[72.80834,18.89062],[72.80826,18.89057],[72.80813,18.89059],[72.80795,18.89074],[72.80775,18.89068],[72.8077,18.89054],[72.80782,18.8905],[72.80784,18.8904],[72.80776,18.89035],[72.80752,18.89036],[72.80743,18.89028],[72.80683,18.88935],[72.80621,18.8882],[72.80526,18.88735],[72.80456,18.88658],[72.80339,18.88391],[72.80315,18.88355],[72.8029,18.88335],[72.80268,18.88335],[72.80254,18.88349],[72.80251,18.88382],[72.8026,18.88428],[72.80276,18.88473],[72.80368,18.8867],[72.80376,18.88702],[72.80392,18.88742],[72.8039,18.88763],[72.80414,18.8881],[72.80428,18.88823],[72.8042,18.88832],[72.80432,18.88862],[72.8044,18.88875],[72.80446,18.88876],[72.80451,18.88874],[72.80451,18.88856],[72.80456,18.88844],[72.80504,18.88845],[72.80519,18.88829],[72.80525,18.88829],[72.80543,18.88849],[72.80562,18.88922],[72.80582,18.88933],[72.80583,18.88946],[72.80576,18.88958],[72.80578,18.88972],[72.80568,18.88991],[72.80572,18.89001],[72.80597,18.89014],[72.80601,18.89021],[72.80583,18.89056],[72.80576,18.89057],[72.80563,18.8904],[72.80554,18.89025],[72.80543,18.88984],[72.8053,18.88973],[72.8052,18.88975],[72.8053,18.88997],[72.80524,18.89016],[72.80509,18.89015],[72.8049,18.88998],[72.80489,18.89015],[72.80498,18.89044],[72.80547,18.891],[72.80586,18.89113],[72.80612,18.89175],[72.80672,18.89185],[72.80686,18.89193],[72.80688,18.89211],[72.80672,18.89223],[72.8064,18.89212],[72.8064,18.89243],[72.80651,18.89265],[72.80695,18.89265],[72.80689,18.89274],[72.80667,18.89282],[72.80675,18.89297],[72.80699,18.89315],[72.80696,18.89323],[72.80673,18.89333],[72.80669,18.89341],[72.80672,18.89349],[72.80684,18.89355],[72.80685,18.89363],[72.80679,18.89372],[72.80683,18.8938],[72.80694,18.89384],[72.80702,18.89378],[72.80705,18.89365],[72.80712,18.89358],[72.8072,18.89362],[72.80723,18.89369],[72.8072,18.89386],[72.80729,18.89405],[72.80718,18.8942],[72.80714,18.89447],[72.80728,18.89551],[72.80622,18.89661],[72.80599,18.89701],[72.80552,18.89762],[72.80505,18.89841],[72.80467,18.89915],[72.80427,18.90012],[72.80393,18.9012],[72.80361,18.90263],[72.80353,18.90525],[72.80361,18.90618],[72.80387,18.90764],[72.80502,18.91038],[72.80579,18.91163],[72.80622,18.91222],[72.80854,18.91481],[72.80883,18.91408],[72.80931,18.91357],[72.8114,18.91194],[72.81167,18.91185],[72.81146,18.91162],[72.81478,18.90878],[72.81598,18.90815],[72.81712,18.90953],[72.81774,18.90999],[72.81898,18.91122],[72.82213,18.91478],[72.82542,18.91873],[72.82557,18.91894],[72.8257,18.91923],[72.82629,18.92104],[72.82683,18.92107],[72.82714,18.92121],[72.82935,18.92284],[72.83114,18.92183],[72.83078,18.92121]]]}},{"type":"Feature","properties":{"village":"Ward No 181","taluka":"Mumbai","district":"Mumbai","lgd":"0","type":"Ward"},"geometry":{"type":"Polygon","coordinates":[[[72.87489,19.02442],[72.87733,19.02408],[72.8776,19.0241],[72.8784,19.02147],[72.87962,19.01969],[72.88128,19.01783],[72.88229,19.01712],[72.88353,19.01672],[72.88449,19.01631],[72.88507,19.01581],[72.88523,19.01524],[72.88531,19.01432],[72.88559,19.0132],[72.88572,19.01207],[72.88541,19.01102],[72.88482,19.0097],[72.88448,19.00862],[72.88397,19.00871],[72.88363,19.00861],[72.88329,19.00847],[72.88257,19.00769],[72.88213,19.00739],[72.88152,19.0072],[72.8811,19.00713],[72.8804,19.0071],[72.87981,19.00678],[72.87911,19.00647],[72.87891,19.0063],[72.87865,19.00561],[72.87853,19.00545],[72.87842,19.00542],[72.87823,19.00543],[72.87784,19.00558],[72.87762,19.00557],[72.87746,19.00569],[72.8771,19.00562],[72.877,19.00572],[72.87687,19.00571],[72.87677,19.00563],[72.87632,19.00544],[72.87531,19.0053],[72.8751,19.00532],[72.87485,19.00549],[72.8746,19.00555],[72.87406,19.00548],[72.87391,19.00551],[72.87347,19.00578],[72.87329,19.00563],[72.87319,19.0057],[72.87292,19.00615],[72.87281,19.00625],[72.8727,19.00625],[72.87258,19.00616],[72.87251,19.00593],[72.87239,19.00596],[72.87233,19.0061],[72.87221,19.00619],[72.87191,19.00618],[72.87177,19.00605],[72.87171,19.00571],[72.87146,19.00516],[72.87145,19.00454],[72.87132,19.0039],[72.87126,19.00375],[72.87118,19.00375],[72.87075,19.00444],[72.87047,19.0046],[72.8697,19.00715],[72.8693,19.00888],[72.86834,19.01027],[72.86713,19.01136],[72.86652,19.01178],[72.86556,19.01254],[72.86467,19.01349],[72.8633,19.01522],[72.86392,19.01561],[72.86424,19.01595],[72.86466,19.01663],[72.86491,19.01726],[72.86517,19.01768],[72.86542,19.0184],[72.87014,19.01764],[72.8712,19.01885],[72.87194,19.02004],[72.87212,19.02043],[72.87224,19.02082],[72.87227,19.02129],[72.87256,19.02209],[72.87256,19.02326],[72.87292,19.02422],[72.87306,19.02432],[72.87345,19.02442],[72.8737,19.02468],[72.87489,19.02442]]]}},{"type":"Feature","properties":{"village":"Ward No 225","taluka":"Mumbai","district":"Mumbai","lgd":"0","type":"Ward"},"geometry":{"type":"Polygon","coordinates":[[[72.84292,18.9494],[72.84595,18.9488],[72.84673,18.94881],[72.84688,18.94828],[72.84689,18.94804],[72.84649,18.9467],[72.84376,18.93567],[72.84329,18.93427],[72.84425,18.92885],[72.84459,18.92572],[72.84451,18.92533],[72.84429,18.92503],[72.84053,18.92107],[72.84059,18.92095],[72.84025,18.92058],[72.83987,18.92035],[72.83958,18.92028],[72.83917,18.92023],[72.83854,18.92029],[72.83802,18.92048],[72.8378,18.92062],[72.83741,18.92097],[72.83496,18.92364],[72.83428,18.92313],[72.83441,18.92295],[72.835,18.92293],[72.83471,18.92231],[72.83497,18.92195],[72.83485,18.92191],[72.83466,18.92171],[72.83463,18.92175],[72.83457,18.9217],[72.83454,18.92162],[72.83449,18.92163],[72.83424,18.92193],[72.83398,18.92192],[72.83366,18.92181],[72.8321,18.91834],[72.83283,18.9182],[72.83288,18.91815],[72.83286,18.91806],[72.83274,18.91802],[72.83209,18.91809],[72.83189,18.91733],[72.83151,18.91738],[72.83022,18.91628],[72.83057,18.91544],[72.83081,18.91542],[72.83127,18.91505],[72.83129,18.91499],[72.82949,18.9129],[72.82834,18.9121],[72.82841,18.91218],[72.82851,18.91261],[72.82837,18.91319],[72.8266,18.91468],[72.82585,18.91553],[72.8267,18.91634],[72.82782,18.91775],[72.82952,18.9194],[72.83038,18.92057],[72.83114,18.92183],[72.82935,18.92284],[72.83115,18.92426],[72.83206,18.92489],[72.83142,18.92651],[72.83136,18.92701],[72.83134,18.92984],[72.83126,18.93253],[72.8233,18.93364],[72.82375,18.93564],[72.82388,18.93758],[72.82386,18.93867],[72.82375,18.93982],[72.82344,18.94138],[72.82371,18.94143],[72.8259,18.94208],[72.82669,18.94246],[72.82875,18.9432],[72.829,18.94352],[72.8298,18.94429],[72.83044,18.94499],[72.83095,18.94542],[72.83313,18.94702],[72.83502,18.94851],[72.8354,18.94867],[72.83637,18.94881],[72.83757,18.94911],[72.84045,18.94894],[72.84103,18.94896],[72.84139,18.94911],[72.84194,18.94969],[72.8421,18.94975],[72.84292,18.9494]]]}}]}